{
    "links": {
        "self": "http://www.neowsapp.com/rest/v1/neo/3824999?api_key=iIulBulltgU6a56xZRHN4H3l9WmuAYTsLGpBGhQ2"
    },
    "id": "3824999",
    "neo_reference_id": "3824999",
    "name": "(2018 KJ1)",
    "designation": "2018 KJ1",
    "nasa_jpl_url": "http://ssd.jpl.nasa.gov/sbdb.cgi?sstr=3824999",
    "absolute_magnitude_h": 20.8,
    "estimated_diameter": {
        "kilometers": {
            "estimated_diameter_min": 0.1838886721,
            "estimated_diameter_max": 0.411187571
        },
        "meters": {
            "estimated_diameter_min": 183.8886720703,
            "estimated_diameter_max": 411.1875710413
        },
        "miles": {
            "estimated_diameter_min": 0.1142630881,
            "estimated_diameter_max": 0.2555000322
        },
        "feet": {
            "estimated_diameter_min": 603.309310875,
            "estimated_diameter_max": 1349.040630575
        }
    },
    "is_potentially_hazardous_asteroid": false,
    "close_approach_data": [
        {
            "close_approach_date": "2018-06-12",
            "close_approach_date_full": "2018-Jun-12 23:22",
            "epoch_date_close_approach": 1528845720000,
            "relative_velocity": {
                "kilometers_per_second": "14.4146497655",
                "kilometers_per_hour": "51892.7391556297",
                "miles_per_hour": "32244.1300603411"
            },
            "miss_distance": {
                "astronomical": "0.1618476907",
                "lunar": "62.9587516823",
                "kilometers": "24212069.793138809",
                "miles": "15044682.5382572042"
            },
            "orbiting_body": "Earth"
        }
    ],
    "orbital_data": {
        "orbit_id": "3",
        "orbit_determination_date": "2018-05-25 06:23:15",
        "first_observation_date": "2018-05-19",
        "last_observation_date": "2018-05-25",
        "data_arc_in_days": 6,
        "observations_used": 45,
        "orbit_uncertainty": "9",
        "minimum_orbit_intersection": ".149904",
        "jupiter_tisserand_invariant": "3.106",
        "epoch_osculation": "2458258.5",
        "eccentricity": ".6568320243119962",
        "semi_major_axis": "2.490653915809895",
        "inclination": "12.85432370963715",
        "ascending_node_longitude": "93.70794748941127",
        "orbital_period": "1435.715881933266",
        "perihelion_distance": ".8547126624278818",
        "perihelion_argument": "177.6829637672639",
        "aphelion_distance": "4.126595169191908",
        "perihelion_time": "2458288.825046171870",
        "mean_anomaly": "352.3961162795156",
        "mean_motion": ".2507459898787504",
        "equinox": "J2000",
        "orbit_class": {
            "orbit_class_type": "APO",
            "orbit_class_description": "Near-Earth asteroid orbits which cross the Earth’s orbit similar to that of 1862 Apollo",
            "orbit_class_range": "a (semi-major axis) > 1.0 AU; q (perihelion) < 1.017 AU"
        }
    },
    "is_sentry_object": false
}